{"fetched_at":"2026-03-30T06:02:59Z","count":15439,"tles":[{"name":"STARLINK-34261","line1":"1 64764U 25147K   26087.90692086  .00028511  00000+0  97072-3 0  9993","line2":"2 64764  53.1600 153.5111 0002516  87.5399 272.5890 15.30210012 41739","category":"Starlink"}]}