{
  "norad_id": 64764,
  "name": "STARLINK-34261",
  "history": [
    {
      "epoch": "2026-03-28T21:45:57.962304Z",
      "apogee_km": 476.909471414363,
      "perigee_km": 473.4608796956245,
      "latitude_deg": 2.0071999060611276e-05,
      "longitude_deg": 0.6989674357064444,
      "height_km": 476.0074284901546,
      "semi_major_axis_km": 6853.322175554994,
      "eccentricity": 0.0002516,
      "inclination_deg": 53.16,
      "raan_deg": 153.5111,
      "arg_perigee_deg": 87.5399,
      "mean_anomaly_deg": 272.589,
      "mean_motion_rev_day": 15.30210012
    }
  ]
}